SPAWAR-CAL-R            
1 43776U 18099U   26067.65115975  .00003570  00000+0  25336-3 0  9990
2 43776  97.4524 111.5817 0019701 348.9052  11.1737 15.05212097396878
STARLINK-3397           
1 51115U 22005M   26068.87937939  .00000813  00000+0  69191-4 0  9990
2 51115  53.2187 288.2684 0001345 114.7264 245.3868 15.08815755228909
